[{"OBJECT_NAME":"GEESAT-6 11","OBJECT_ID":"2025-214M","EPOCH":"2026-03-09T23:07:42.214656","MEAN_MOTION":14.83011183,"ECCENTRICITY":0.00102147,"INCLINATION":49.983,"RA_OF_ASC_NODE":47.57,"ARG_OF_PERICENTER":204.321,"MEAN_ANOMALY":155.7247,"EPHEMERIS_TYPE":0,"CLASSIFICATION_TYPE":"U","NORAD_CAT_ID":65723,"ELEMENT_SET_NO":999,"REV_AT_EPOCH":2478,"BSTAR":0.0003899676,"MEAN_MOTION_DOT":2.981e-5,"MEAN_MOTION_DDOT":0},{"OBJECT_NAME":"CZ-4B DEB","OBJECT_ID":"1999-057MX","EPOCH":"2026-03-09T17:31:49.139904","MEAN_MOTION":14.69260103,"ECCENTRICITY":0.00656434,"INCLINATION":98.4159,"RA_OF_ASC_NODE":144.3439,"ARG_OF_PERICENTER":44.4026,"MEAN_ANOMALY":316.2415,"EPHEMERIS_TYPE":0,"CLASSIFICATION_TYPE":"U","NORAD_CAT_ID":28067,"ELEMENT_SET_NO":999,"REV_AT_EPOCH":22905,"BSTAR":0.00093756523,"MEAN_MOTION_DOT":5.661e-5,"MEAN_MOTION_DDOT":0}]
